start=new Date('2023-05-14T00:00:00.000Z').valueOf();
sats=[{"ARG_OF_PERICENTER":"75.7537","PERIAPSIS":"539.077","EPHEMERIS_TYPE":"0","APOAPSIS":"540.402","INCLINATION":"53.2169","GP_ID":"231780273","MEAN_ELEMENT_THEORY":"SGP4","RA_OF_ASC_NODE":"272.6052","SITE":"AFETR","MEAN_MOTION_DDOT":"0.0000000000000","MEAN_ANOMALY":"284.3561","REF_FRAME":"TEME","ECCENTRICITY":"0.00009580","RCS_SIZE":"LARGE","FILE":"3907148","PERIOD":"95.437","CENTER_NAME":"EARTH","OBJECT_NAME":"STARLINK-5035","TLE_LINE1":"1 53897U 22119M   23133.65622881  .00000919  00000-0  75825-4 0  9997","TIME_SYSTEM":"UTC","NORAD_CAT_ID":"53897","TLE_LINE2":"2 53897  53.2169 272.6052 0000958  75.7537 284.3561 15.08841946 36037","CLASSIFICATION_TYPE":"U","SEMIMAJOR_AXIS":"6917.874","MEAN_MOTION_DOT":"0.00000919","REV_AT_EPOCH":"3603","LAUNCH_DATE":"2022-09-24","ELEMENT_SET_NO":"999","OBJECT_TYPE":"PAYLOAD","BSTAR":"0.00007582500000","OBJECT_ID":"2022-119M","COUNTRY_CODE":"US","DECAY_DATE":null,"EPOCH":"2023-05-13T15:44:58.169184","MEAN_MOTION":"15.08841946"},{"DECAY_DATE":null,"MEAN_MOTION":"15.08842659","EPOCH":"2023-05-13T16:43:12.787392","OBJECT_ID":"2022-119N","OBJECT_TYPE":"PAYLOAD","BSTAR":"0.00001346800000","COUNTRY_CODE":"US","MEAN_MOTION_DOT":"-0.00000073","SEMIMAJOR_AXIS":"6917.872","LAUNCH_DATE":"2022-09-24","REV_AT_EPOCH":"3604","ELEMENT_SET_NO":"999","CLASSIFICATION_TYPE":"U","TLE_LINE2":"2 53898  53.2170 272.1495 0001094  84.5180 275.5937 15.08842659 36042","TLE_LINE1":"1 53898U 22119N   23133.69667578 -.00000073  00000-0  13468-4 0  9991","OBJECT_NAME":"STARLINK-5044","NORAD_CAT_ID":"53898","TIME_SYSTEM":"UTC","REF_FRAME":"TEME","MEAN_ANOMALY":"275.5937","SITE":"AFETR","MEAN_MOTION_DDOT":"0.0000000000000","RA_OF_ASC_NODE":"272.1495","PERIOD":"95.437","CENTER_NAME":"EARTH","FILE":"3907148","RCS_SIZE":"LARGE","ECCENTRICITY":"0.00010940","GP_ID":"231780532","INCLINATION":"53.2170","APOAPSIS":"540.494","MEAN_ELEMENT_THEORY":"SGP4","ARG_OF_PERICENTER":"84.5180","PERIAPSIS":"538.980","EPHEMERIS_TYPE":"0"},{"MEAN_MOTION":"15.08845582","EPOCH":"2023-05-13T16:48:31.185216","DECAY_DATE":null,"COUNTRY_CODE":"US","OBJECT_ID":"2022-119P","BSTAR":"0.00024589000000","OBJECT_TYPE":"PAYLOAD","LAUNCH_DATE":"2022-09-24","REV_AT_EPOCH":"3604","ELEMENT_SET_NO":"999","MEAN_MOTION_DOT":"0.00003628","SEMIMAJOR_AXIS":"6917.863","CLASSIFICATION_TYPE":"U","TLE_LINE2":"2 53899  53.2156 272.1720 0001193  83.5772 276.5356 15.08845582 36048","NORAD_CAT_ID":"53899","TIME_SYSTEM":"UTC","TLE_LINE1":"1 53899U 22119P   23133.70036094  .00003628  00000-0  24589-3 0  9990","OBJECT_NAME":"STARLINK-5042","PERIOD":"95.437","CENTER_NAME":"EARTH","RCS_SIZE":"LARGE","FILE":"3907148","ECCENTRICITY":"0.00011930","MEAN_ANOMALY":"276.5356","REF_FRAME":"TEME","SITE":"AFETR","RA_OF_ASC_NODE":"272.1720","MEAN_MOTION_DDOT":"0.0000000000000","MEAN_ELEMENT_THEORY":"SGP4","GP_ID":"231781269","INCLINATION":"53.2156","APOAPSIS":"540.554","EPHEMERIS_TYPE":"0","PERIAPSIS":"538.903","ARG_OF_PERICENTER":"83.5772"},{"TLE_LINE2":"2 53900  53.2173 271.5089 0001270  81.5455 278.5681 15.08846439 36060","CLASSIFICATION_TYPE":"U","LAUNCH_DATE":"2022-09-24","ELEMENT_SET_NO":"999","REV_AT_EPOCH":"3606","MEAN_MOTION_DOT":"0.00001142","SEMIMAJOR_AXIS":"6917.861","COUNTRY_CODE":"US","OBJECT_ID":"2022-119Q","OBJECT_TYPE":"PAYLOAD","BSTAR":"0.00008981700000","MEAN_MOTION":"15.08846439","EPOCH":"2023-05-13T19:43:22.042560","DECAY_DATE":null,"EPHEMERIS_TYPE":"0","PERIAPSIS":"538.847","ARG_OF_PERICENTER":"81.5455","MEAN_ELEMENT_THEORY":"SGP4","APOAPSIS":"540.604","INCLINATION":"53.2173","GP_ID":"231780030","CENTER_NAME":"EARTH","PERIOD":"95.437","ECCENTRICITY":"0.00012700","FILE":"3907148","RCS_SIZE":"LARGE","MEAN_ANOMALY":"278.5681","REF_FRAME":"TEME","SITE":"AFETR","MEAN_MOTION_DDOT":"0.0000000000000","RA_OF_ASC_NODE":"271.5089","NORAD_CAT_ID":"53900","TIME_SYSTEM":"UTC","TLE_LINE1":"1 53900U 22119Q   23133.82178290  .00001142  00000-0  89817-4 0  9996","OBJECT_NAME":"STARLINK-5045"},{"COUNTRY_CODE":"US","BSTAR":"0.00035932000000","OBJECT_TYPE":"PAYLOAD","OBJECT_ID":"2022-119R","EPOCH":"2023-05-13T16:53:49.635744","MEAN_MOTION":"15.08847341","DECAY_DATE":null,"CLASSIFICATION_TYPE":"U","TLE_LINE2":"2 53901  53.2159 272.1925 0001108  94.7482 265.3637 15.08847341 36043","LAUNCH_DATE":"2022-09-24","REV_AT_EPOCH":"3604","ELEMENT_SET_NO":"999","SEMIMAJOR_AXIS":"6917.858","MEAN_MOTION_DOT":"0.00005436","FILE":"3907148","RCS_SIZE":"LARGE","ECCENTRICITY":"0.00011080","PERIOD":"95.437","CENTER_NAME":"EARTH","SITE":"AFETR","RA_OF_ASC_NODE":"272.1925","MEAN_MOTION_DDOT":"0.0000000000000","REF_FRAME":"TEME","MEAN_ANOMALY":"265.3637","TIME_SYSTEM":"UTC","NORAD_CAT_ID":"53901","OBJECT_NAME":"STARLINK-5024","TLE_LINE1":"1 53901U 22119R   23133.70404671  .00005436  00000-0  35932-3 0  9997","PERIAPSIS":"538.956","EPHEMERIS_TYPE":"0","ARG_OF_PERICENTER":"94.7482","MEAN_ELEMENT_THEORY":"SGP4","GP_ID":"231780774","INCLINATION":"53.2159","APOAPSIS":"540.489"},{"COUNTRY_CODE":"US","BSTAR":"0.00002662300000","OBJECT_TYPE":"PAYLOAD","OBJECT_ID":"2022-119S","EPOCH":"2023-05-13T13:23:09.993120","MEAN_MOTION":"15.08851733","DECAY_DATE":null,"TLE_LINE2":"2 53902  53.2178 222.7989 0001127 108.0143 252.0972 15.08851733 36720","CLASSIFICATION_TYPE":"U","LAUNCH_DATE":"2022-09-24","ELEMENT_SET_NO":"999","REV_AT_EPOCH":"3672","SEMIMAJOR_AXIS":"6917.845","MEAN_MOTION_DOT":"0.00000136","ECCENTRICITY":"0.00011270","RCS_SIZE":"LARGE","FILE":"3906915","PERIOD":"95.437","CENTER_NAME":"EARTH","MEAN_MOTION_DDOT":"0.0000000000000","SITE":"AFETR","RA_OF_ASC_NODE":"222.7989","REF_FRAME":"TEME","MEAN_ANOMALY":"252.0972","TIME_SYSTEM":"UTC","NORAD_CAT_ID":"53902","OBJECT_NAME":"STARLINK-5021","TLE_LINE1":"1 53902U 22119S   23133.55775455  .00000136  00000-0  26623-4 0  9992","EPHEMERIS_TYPE":"0","PERIAPSIS":"538.930","ARG_OF_PERICENTER":"108.0143","MEAN_ELEMENT_THEORY":"SGP4","APOAPSIS":"540.489","INCLINATION":"53.2178","GP_ID":"231747800"},{"OBJECT_NAME":"STARLINK-5022","TLE_LINE1":"1 53903U 22119T   23133.91667824  .00020411  00000-0  13566-2 0  9991","TIME_SYSTEM":"UTC","NORAD_CAT_ID":"53903","RA_OF_ASC_NODE":"271.1574","SITE":"AFETR","MEAN_MOTION_DDOT":"0.0000000000000","MEAN_ANOMALY":"35.2370","REF_FRAME":"TEME","ECCENTRICITY":"0.00012920","FILE":"3906967","RCS_SIZE":"LARGE","PERIOD":"95.543","CENTER_NAME":"EARTH","APOAPSIS":"545.729","GP_ID":"231752364","INCLINATION":"53.2149","MEAN_ELEMENT_THEORY":"SGP4","ARG_OF_PERICENTER":"80.8878","EPHEMERIS_TYPE":"0","PERIAPSIS":"543.940","DECAY_DATE":null,"EPOCH":"2023-05-13T22:00:00.999936","MEAN_MOTION":"15.07176657","BSTAR":"0.00135660000000","OBJECT_TYPE":"PAYLOAD","OBJECT_ID":"2022-119T","COUNTRY_CODE":"US","SEMIMAJOR_AXIS":"6922.969","MEAN_MOTION_DOT":"0.00020411","LAUNCH_DATE":"2022-09-24","REV_AT_EPOCH":"3565","ELEMENT_SET_NO":"999","TLE_LINE2":"2 53903  53.2149 271.1574 0001292  80.8878  35.2370 15.07176657 35650","CLASSIFICATION_TYPE":"U"},{"MEAN_MOTION_DOT":"-0.00000062","SEMIMAJOR_AXIS":"6917.884","LAUNCH_DATE":"2022-09-24","ELEMENT_SET_NO":"999","REV_AT_EPOCH":"3604","CLASSIFICATION_TYPE":"U","TLE_LINE2":"2 53904  53.2166 272.0833 0001384 105.3929 254.7216 15.08838752 36043","DECAY_DATE":null,"MEAN_MOTION":"15.08838752","EPOCH":"2023-05-13T16:27:17.993952","OBJECT_ID":"2022-119U","OBJECT_TYPE":"PAYLOAD","BSTAR":"0.00001417100000","COUNTRY_CODE":"US","GP_ID":"231779531","INCLINATION":"53.2166","APOAPSIS":"540.707","MEAN_ELEMENT_THEORY":"SGP4","ARG_OF_PERICENTER":"105.3929","PERIAPSIS":"538.792","EPHEMERIS_TYPE":"0","TLE_LINE1":"1 53904U 22119U   23133.68562493 -.00000062  00000-0  14171-4 0  9998","OBJECT_NAME":"STARLINK-4787","NORAD_CAT_ID":"53904","TIME_SYSTEM":"UTC","REF_FRAME":"TEME","MEAN_ANOMALY":"254.7216","MEAN_MOTION_DDOT":"0.0000000000000","SITE":"AFETR","RA_OF_ASC_NODE":"272.0833","CENTER_NAME":"EARTH","PERIOD":"95.438","FILE":"3907148","RCS_SIZE":"LARGE","ECCENTRICITY":"0.00013840"},{"DECAY_DATE":null,"EPOCH":"2023-05-13T17:48:12.835008","MEAN_MOTION":"15.08849139","OBJECT_TYPE":"PAYLOAD","BSTAR":"0.00022553000000","OBJECT_ID":"2022-119V","COUNTRY_CODE":"US","SEMIMAJOR_AXIS":"6917.852","MEAN_MOTION_DOT":"0.00003304","REV_AT_EPOCH":"3576","LAUNCH_DATE":"2022-09-24","ELEMENT_SET_NO":"999","TLE_LINE2":"2 53905  53.2165 262.4465 0001081  79.6622 280.4492 15.08849139 35765","CLASSIFICATION_TYPE":"U","OBJECT_NAME":"STARLINK-5003","TLE_LINE1":"1 53905U 22119V   23133.74181522  .00003304  00000-0  22553-3 0  9999","TIME_SYSTEM":"UTC","NORAD_CAT_ID":"53905","SITE":"AFETR","RA_OF_ASC_NODE":"262.4465","MEAN_MOTION_DDOT":"0.0000000000000","MEAN_ANOMALY":"280.4492","REF_FRAME":"TEME","ECCENTRICITY":"0.00010810","RCS_SIZE":"LARGE","FILE":"3906968","CENTER_NAME":"EARTH","PERIOD":"95.437","APOAPSIS":"540.465","INCLINATION":"53.2165","GP_ID":"231752372","MEAN_ELEMENT_THEORY":"SGP4","ARG_OF_PERICENTER":"79.6622","PERIAPSIS":"538.970","EPHEMERIS_TYPE":"0"},{"SEMIMAJOR_AXIS":"6917.826","MEAN_MOTION_DOT":"-0.00004079","LAUNCH_DATE":"2022-09-24","ELEMENT_SET_NO":"999","REV_AT_EPOCH":"3617","CLASSIFICATION_TYPE":"U","TLE_LINE2":"2 53906  53.2175 262.4329 0000911 100.3179 259.7916 15.08857819 36176","DECAY_DATE":null,"EPOCH":"2023-05-13T14:58:32.116512","MEAN_MOTION":"15.08857819","BSTAR":"-0.00023822000000","OBJECT_TYPE":"PAYLOAD","OBJECT_ID":"2022-119W","COUNTRY_CODE":"US","INCLINATION":"53.2175","GP_ID":"231780533","APOAPSIS":"540.321","MEAN_ELEMENT_THEORY":"SGP4","ARG_OF_PERICENTER":"100.3179","EPHEMERIS_TYPE":"0","PERIAPSIS":"539.061","OBJECT_NAME":"STARLINK-5054","TLE_LINE1":"1 53906U 22119W   23133.62398283 -.00004079  00000-0 -23822-3 0  9993","TIME_SYSTEM":"UTC","NORAD_CAT_ID":"53906","SITE":"AFETR","RA_OF_ASC_NODE":"262.4329","MEAN_MOTION_DDOT":"0.0000000000000","MEAN_ANOMALY":"259.7916","REF_FRAME":"TEME","FILE":"3907148","RCS_SIZE":"LARGE","ECCENTRICITY":"0.00009110","PERIOD":"95.436","CENTER_NAME":"EARTH"}];
